{
  "norad_id": 57976,
  "name": "STARLINK-30512",
  "history": [
    {
      "epoch": "2026-03-28T18:07:41.154816Z",
      "apogee_km": 483.83902977462367,
      "perigee_km": 482.2480592299653,
      "latitude_deg": -3.6080304340108155e-05,
      "longitude_deg": 130.04935269904377,
      "height_km": 482.9056509730372,
      "semi_major_axis_km": 6861.180544502295,
      "eccentricity": 0.00011594,
      "inclination_deg": 42.9999,
      "raan_deg": 228.1421,
      "arg_perigee_deg": 263.8202,
      "mean_anomaly_deg": 96.2517,
      "mean_motion_rev_day": 15.27581854
    },
    {
      "epoch": "2026-03-29T01:58:28.018272Z",
      "apogee_km": 483.82762104943686,
      "perigee_km": 482.2495506646892,
      "latitude_deg": -2.8118126854152976e-05,
      "longitude_deg": 10.18135855567077,
      "height_km": 482.50502667558266,
      "semi_major_axis_km": 6861.175585857062,
      "eccentricity": 0.000115,
      "inclination_deg": 43.0024,
      "raan_deg": 226.2916,
      "arg_perigee_deg": 293.1565,
      "mean_anomaly_deg": 66.9165,
      "mean_motion_rev_day": 15.2758351
    }
  ]
}